[
    {
        "Altitude(m)": 622205.901043174,
        "Argument of Periapsis(deg)": 0.0,
        "Eccentricity": 0.0,
        "Inclination(deg)": 60.0,
        "Latitude(deg)": -52.162528019655475,
        "Longitude(deg)": -57.29952969293766,
        "Mean Anomaly(deg)": -114.5455,
        "RAAN(deg)": 175.0,
        "Satellite Name": "Test1 785",
        "Satellite Number": 785,
        "Semi-Major Axis(m)": 6980739.136638005,
        "Time(s)": 0
    },
    {
        "Altitude(m)": 622344.8071810707,
        "Argument of Periapsis(deg)": 0.00010418945913296404,
        "Eccentricity": 0.0,
        "Inclination(deg)": 60.0,
        "Latitude(deg)": -52.52010679165842,
        "Longitude(deg)": -56.518314710346964,
        "Mean Anomaly(deg)": -113.92539385453817,
        "RAAN(deg)": 174.99957995086024,
        "Satellite Name": "Test1 785",
        "Satellite Number": 785,
        "Semi-Major Axis(m)": 6980739.136638005,
        "Time(s)": 10
    }
]